{
  "type": "FeatureCollection",
  "features": [
    {
      "type": "Feature",
      "properties": {
        "norad_id": 44709,
        "name": "BEIDOU-3 IGSO-3 (C40)",
        "group": "beidou",
        "lat": 53.79267580019991,
        "lon": -5.227900584814469,
        "alt_km": 35859.26830866859,
        "timestamp": "2025-12-18T10:51:26.071768+00:00",
        "meta_object_name": "BEIDOU-3 IGSO-3 (C40)",
        "meta_object_id": "2019-073A",
        "meta_epoch": "2025-11-20T07:11:22.740000",
        "meta_mean_motion": 1.00250097,
        "meta_eccentricity": 0.0044538,
        "meta_inclination": 55.163,
        "meta_ra_of_asc_node": 283.159,
        "meta_arg_of_pericenter": 191.5856,
        "meta_mean_anomaly": 168.2409,
        "meta_ephemeris_type": 0,
        "meta_classification_type": "U",
        "meta_norad_cat_id": 44709,
        "meta_element_set_no": 999,
        "meta_rev_at_epoch": 2236,
        "meta_bstar": 0,
        "meta_mean_motion_dot": -2.06e-06,
        "meta_mean_motion_ddot": 0,
        "tle_line1": "1 44709U 19073A   25324.29956875 -.00000206  00000+0  00000+0 0  9998",
        "tle_line2": "2 44709  55.1630 283.1590 0044538 191.5856 168.2409  1.00250097 22360"
      },
      "geometry": {
        "type": "Point",
        "coordinates": [
          -5.227900584814469,
          53.79267580019991
        ]
      }
    },
    {
      "type": "Feature",
      "properties": {
        "norad_id": 44793,
        "name": "BEIDOU-3 M22 (C44)",
        "group": "beidou",
        "lat": -29.288171983297076,
        "lon": 150.10754775927768,
        "alt_km": 21547.93292327607,
        "timestamp": "2025-12-18T10:51:26.071785+00:00",
        "meta_object_name": "BEIDOU-3 M22 (C44)",
        "meta_object_id": "2019-078A",
        "meta_epoch": "2025-12-17T14:11:57.933600",
        "meta_mean_motion": 1.86232151,
        "meta_eccentricity": 0.00059947,
        "meta_inclination": 54.1037,
        "meta_ra_of_asc_node": 306.2155,
        "meta_arg_of_pericenter": 24.2976,
        "meta_mean_anomaly": 335.7178,
        "meta_ephemeris_type": 0,
        "meta_classification_type": "U",
        "meta_norad_cat_id": 44793,
        "meta_element_set_no": 999,
        "meta_rev_at_epoch": 4126,
        "meta_bstar": 0,
        "meta_mean_motion_dot": -8.9e-07,
        "meta_mean_motion_ddot": 0,
        "tle_line1": "1 44793U 19078A   25351.59164275 -.00000089  00000+0  00000+0 0  9993",
        "tle_line2": "2 44793  54.1037 306.2155 0005994  24.2976 335.7178  1.86232151 41264"
      },
      "geometry": {
        "type": "Point",
        "coordinates": [
          150.10754775927768,
          -29.288171983297076
        ]
      }
    },
    {
      "type": "Feature",
      "properties": {
        "norad_id": 44794,
        "name": "BEIDOU-3 M21 (C43)",
        "group": "beidou",
        "lat": 41.690912276066186,
        "lon": 85.94886204108131,
        "alt_km": 21527.7735762981,
        "timestamp": "2025-12-18T10:51:26.071796+00:00",
        "meta_object_name": "BEIDOU-3 M21 (C43)",
        "meta_object_id": "2019-078B",
        "meta_epoch": "2025-12-16T15:43:55.727904",
        "meta_mean_motion": 1.86227668,
        "meta_eccentricity": 0.00041169,
        "meta_inclination": 54.078,
        "meta_ra_of_asc_node": 306.2132,
        "meta_arg_of_pericenter": 11.942,
        "meta_mean_anomaly": 348.0544,
        "meta_ephemeris_type": 0,
        "meta_classification_type": "U",
        "meta_norad_cat_id": 44794,
        "meta_element_set_no": 999,
        "meta_rev_at_epoch": 4125,
        "meta_bstar": 0,
        "meta_mean_motion_dot": -9.5e-07,
        "meta_mean_motion_ddot": 0,
        "tle_line1": "1 44794U 19078B   25350.65550611 -.00000095  00000+0  00000+0 0  9990",
        "tle_line2": "2 44794  54.0780 306.2132 0004116  11.9420 348.0544  1.86227668 41256"
      },
      "geometry": {
        "type": "Point",
        "coordinates": [
          85.94886204108131,
          41.690912276066186
        ]
      }
    },
    {
      "type": "Feature",
      "properties": {
        "norad_id": 44864,
        "name": "BEIDOU-3 M19 (C41)",
        "group": "beidou",
        "lat": -31.92224920577793,
        "lon": 44.3568796159621,
        "alt_km": 21490.842472367498,
        "timestamp": "2025-12-18T10:51:26.071808+00:00",
        "meta_object_name": "BEIDOU-3 M19 (C41)",
        "meta_object_id": "2019-090A",
        "meta_epoch": "2025-12-16T21:16:08.319360",
        "meta_mean_motion": 1.86231655,
        "meta_eccentricity": 0.00181701,
        "meta_inclination": 56.3969,
        "meta_ra_of_asc_node": 68.8236,
        "meta_arg_of_pericenter": 285.0658,
        "meta_mean_anomaly": 65.3992,
        "meta_ephemeris_type": 0,
        "meta_classification_type": "U",
        "meta_norad_cat_id": 44864,
        "meta_element_set_no": 999,
        "meta_rev_at_epoch": 4083,
        "meta_bstar": 0,
        "meta_mean_motion_dot": -7.7e-07,
        "meta_mean_motion_ddot": 0,
        "tle_line1": "1 44864U 19090A   25350.88620740 -.00000077  00000+0  00000+0 0  9998",
        "tle_line2": "2 44864  56.3969  68.8236 0018170 285.0658  65.3992  1.86231655 40836"
      },
      "geometry": {
        "type": "Point",
        "coordinates": [
          44.3568796159621,
          -31.92224920577793
        ]
      }
    },
    {
      "type": "Feature",
      "properties": {
        "norad_id": 44865,
        "name": "BEIDOU-3 M20 (C42)",
        "group": "beidou",
        "lat": 39.842801559811974,
        "lon": 102.45344490269986,
        "alt_km": 21539.28509258568,
        "timestamp": "2025-12-18T10:51:26.071820+00:00",
        "meta_object_name": "BEIDOU-3 M20 (C42)",
        "meta_object_id": "2019-090B",
        "meta_epoch": "2025-12-14T14:16:43.218624",
        "meta_mean_motion": 1.86231589,
        "meta_eccentricity": 0.00151163,
        "meta_inclination": 56.3967,
        "meta_ra_of_asc_node": 68.9336,
        "meta_arg_of_pericenter": 297.6834,
        "meta_mean_anomaly": 46.2212,
        "meta_ephemeris_type": 0,
        "meta_classification_type": "U",
        "meta_norad_cat_id": 44865,
        "meta_element_set_no": 999,
        "meta_rev_at_epoch": 4077,
        "meta_bstar": 0,
        "meta_mean_motion_dot": -8.3e-07,
        "meta_mean_motion_ddot": 0,
        "tle_line1": "1 44865U 19090B   25348.59494466 -.00000083  00000+0  00000+0 0  9995",
        "tle_line2": "2 44865  56.3967  68.9336 0015116 297.6834  46.2212  1.86231589 40771"
      },
      "geometry": {
        "type": "Point",
        "coordinates": [
          102.45344490269986,
          39.842801559811974
        ]
      }
    },
    {
      "type": "Feature",
      "properties": {
        "norad_id": 45344,
        "name": "BEIDOU-3 G2 (C60)",
        "group": "beidou",
        "lat": -2.4158923353093136,
        "lon": -29.770282510769043,
        "alt_km": 35779.663020116364,
        "timestamp": "2025-12-18T10:51:26.071832+00:00",
        "meta_object_name": "BEIDOU-3 G2 (C60)",
        "meta_object_id": "2020-017A",
        "meta_epoch": "2025-12-17T19:56:27.389184",
        "meta_mean_motion": 1.00276574,
        "meta_eccentricity": 0.0002286,
        "meta_inclination": 2.5064,
        "meta_ra_of_asc_node": 43.9767,
        "meta_arg_of_pericenter": 230.3031,
        "meta_mean_anomaly": 191.5542,
        "meta_ephemeris_type": 0,
        "meta_classification_type": "U",
        "meta_norad_cat_id": 45344,
        "meta_element_set_no": 999,
        "meta_rev_at_epoch": 2144,
        "meta_bstar": 0,
        "meta_mean_motion_dot": -1.19e-06,
        "meta_mean_motion_ddot": 0,
        "tle_line1": "1 45344U 20017A   25351.83087256 -.00000119  00000+0  00000+0 0  9995",
        "tle_line2": "2 45344   2.5064  43.9767 0002286 230.3031 191.5542  1.00276574 21445"
      },
      "geometry": {
        "type": "Point",
        "coordinates": [
          -29.770282510769043,
          -2.4158923353093136
        ]
      }
    },
    {
      "type": "Feature",
      "properties": {
        "norad_id": 45807,
        "name": "BEIDOU-3 G3 (C61)",
        "group": "beidou",
        "lat": -1.8247490773259623,
        "lon": 0.7403719626319545,
        "alt_km": 35760.454333484406,
        "timestamp": "2025-12-18T10:51:26.071845+00:00",
        "meta_object_name": "BEIDOU-3 G3 (C61)",
        "meta_object_id": "2020-040A",
        "meta_epoch": "2025-12-17T20:42:00.687744",
        "meta_mean_motion": 1.00271811,
        "meta_eccentricity": 0.0006402,
        "meta_inclination": 2.0032,
        "meta_ra_of_asc_node": 66.6314,
        "meta_arg_of_pericenter": 309.0943,
        "meta_mean_anomaly": 132.0925,
        "meta_ephemeris_type": 0,
        "meta_classification_type": "U",
        "meta_norad_cat_id": 45807,
        "meta_element_set_no": 999,
        "meta_rev_at_epoch": 2025,
        "meta_bstar": 0,
        "meta_mean_motion_dot": -3.31e-06,
        "meta_mean_motion_ddot": 0,
        "tle_line1": "1 45807U 20040A   25351.86250796 -.00000331  00000+0  00000+0 0  9995",
        "tle_line2": "2 45807   2.0032  66.6314 0006402 309.0943 132.0925  1.00271811 20251"
      },
      "geometry": {
        "type": "Point",
        "coordinates": [
          0.7403719626319545,
          -1.8247490773259623
        ]
      }
    }
  ]
}